DRAGON CRS-10           
1 42053U 17009A   17073.59757234  .00003182  00000-0  55149-4 0  9993
2 42053  51.6435 149.8114 0007006 291.5980 211.5204 15.54208770  3585
